CCSDS_OEM_VERS = 1.0
CREATION_DATE  = 2017-05-11T11:38:45
ORIGINATOR     = GMAT USER

META_START
OBJECT_NAME          = MOPSSat_alt_35785_km_RAAN_180_104
OBJECT_ID            = SatId
CENTER_NAME          = Earth
REF_FRAME            = EME2000
TIME_SYSTEM          = UTC
START_TIME           = 2017-01-01T00:00:00.000
USEABLE_START_TIME   = 2017-01-01T00:00:00.000
USEABLE_STOP_TIME    = 2017-01-02T00:00:00.000
STOP_TIME            = 2017-01-02T00:00:00.000
INTERPOLATION        = Lagrange
INTERPOLATION_DEGREE = 7 
META_STOP


                                                                                   

2017-01-01T23:04:10.000  -3.661855214735632e+04   1.028570696633669e+04  -1.810270489444539e+03  -8.474796050352063e-01  -3.230957812712357e+00   5.699503218506025e-01
2017-01-01T23:04:20.000  -3.662701372377887e+04   1.025339367936236e+04  -1.804570333240110e+03  -8.448355484605681e-01  -3.231699202439414e+00   5.700808520394413e-01
2017-01-01T23:04:30.000  -3.663544885578036e+04   1.022107298960986e+04  -1.798868873695626e+03  -8.421907056164312e-01  -3.232438308224675e+00   5.702109792558719e-01
2017-01-01T23:04:40.000  -3.664385753551833e+04   1.018874491988768e+04  -1.793166114835356e+03  -8.395450788640654e-01  -3.233175129074957e+00   5.703407033248956e-01
2017-01-01T23:04:50.000  -3.665223975507117e+04   1.015640949341812e+04  -1.787462060756562e+03  -8.368986705994311e-01  -3.233909663990942e+00   5.704700240704361e-01
2017-01-01T23:05:00.000  -3.666059550656992e+04   1.012406673332031e+04  -1.781756715538302e+03  -8.342514832108542e-01  -3.234641911978740e+00   5.705989413173721e-01
2017-01-01T23:05:10.000  -3.666892478214900e+04   1.009171666280234e+04  -1.776050083275332e+03  -8.316035190947489e-01  -3.235371872045555e+00   5.707274548907784e-01
2017-01-01T23:05:20.000  -3.667722757413812e+04   1.005935930441718e+04  -1.770342167946834e+03  -8.289547805947157e-01  -3.236099543216517e+00   5.708555646188846e-01
2017-01-01T23:05:30.000  -3.668550387487060e+04   1.002699468080476e+04  -1.764632973547330e+03  -8.263052700622734e-01  -3.236824924517886e+00   5.709832703301224e-01
2017-01-01T23:05:40.000  -3.669375367672741e+04   9.994622814523898e+03  -1.758922504057037e+03  -8.236549898431080e-01  -3.237548014980904e+00   5.711105718538004e-01
2017-01-01T23:05:50.000  -3.670197697202660e+04   9.962243728470581e+03  -1.753210763515638e+03  -8.210039423112858e-01  -3.238268813632118e+00   5.712374690184027e-01
2017-01-01T23:06:00.000  -3.671017375310637e+04   9.929857445567630e+03  -1.747497755967553e+03  -8.183521298438738e-01  -3.238987319500654e+00   5.713639616528681e-01
2017-01-01T23:06:10.000  -3.671834401232370e+04   9.897463988764306e+03  -1.741783485461867e+03  -8.156995548208940e-01  -3.239703531618104e+00   5.714900495865707e-01
2017-01-01T23:06:20.000  -3.672648774197926e+04   9.865063381348724e+03  -1.736067956107430e+03  -8.130462196509244e-01  -3.240417449011935e+00   5.716157326481605e-01
2017-01-01T23:06:30.000  -3.673460493441999e+04   9.832655646527332e+03  -1.730351171998690e+03  -8.103921267366453e-01  -3.241129070714488e+00   5.717410106671464e-01
2017-01-01T23:06:40.000  -3.674269558199809e+04   9.800240807590459e+03  -1.724633137244884e+03  -8.077372784883933e-01  -3.241838395759400e+00   5.718658834732659e-01
2017-01-01T23:06:50.000  -3.675075967725409e+04   9.767818887180767e+03  -1.718913855841005e+03  -8.050816772642485e-01  -3.242545423197627e+00   5.719903508993071e-01
2017-01-01T23:07:00.000  -3.675879721273359e+04   9.735389908024663e+03  -1.713193331796809e+03  -8.024253254299319e-01  -3.243250152081399e+00   5.721144127782843e-01
2017-01-01T23:07:10.000  -3.676680818102929e+04   9.702953892766996e+03  -1.707471569107667e+03  -7.997682253452706e-01  -3.243952581467903e+00   5.722380689440851e-01
2017-01-01T23:07:20.000  -3.677479257467356e+04   9.670510864390175e+03  -1.701748571828494e+03  -7.971103793985015e-01  -3.244652710409862e+00   5.723613192298124e-01
2017-01-01T23:07:30.000  -3.678275038621914e+04   9.638060845903217e+03  -1.696024344018897e+03  -7.944517899808251e-01  -3.245350537962622e+00   5.724841634690324e-01
2017-01-01T23:07:40.000  -3.679068160823789e+04   9.605603860341378e+03  -1.690298889743108e+03  -7.917924594863613e-01  -3.246046063184027e+00   5.726066014957518e-01
2017-01-01T23:07:50.000  -3.679858623324789e+04   9.573139931079091e+03  -1.684572213125189e+03  -7.891323903378094e-01  -3.246739285128037e+00   5.727286331432958e-01
2017-01-01T23:08:00.000  -3.680646425381288e+04   9.540669081408725e+03  -1.678844318274722e+03  -7.864715849519124e-01  -3.247430202853460e+00   5.728502582458429e-01
2017-01-01T23:08:10.000  -3.681431566250203e+04   9.508191334709521e+03  -1.673115209316616e+03  -7.838100457533015e-01  -3.248118815420398e+00   5.729714766378022e-01
2017-01-01T23:08:20.000  -3.682214045206999e+04   9.475706713702413e+03  -1.667384890259644e+03  -7.811477751134261e-01  -3.248805121906073e+00   5.730922881565967e-01
2017-01-01T23:08:30.000  -3.682993861527618e+04   9.443215241196956e+03  -1.661653365128220e+03  -7.784847754117624e-01  -3.249489121388955e+00   5.732126926398705e-01
2017-01-01T23:08:40.000  -3.683771014493166e+04   9.410716939898588e+03  -1.655920637928381e+03  -7.758210490200154e-01  -3.250170812952883e+00   5.733326899262148e-01
2017-01-01T23:08:50.000  -3.684545503377206e+04   9.378211832926690e+03  -1.650186712739185e+03  -7.731565983445636e-01  -3.250850195675929e+00   5.734522798532058e-01
2017-01-01T23:09:00.000  -3.685317327456301e+04   9.345699943387142e+03  -1.644451593637307e+03  -7.704914257914387e-01  -3.251527268639632e+00   5.735714622590321e-01
2017-01-01T23:09:10.000  -3.686086486007570e+04   9.313181294470787e+03  -1.638715284714408e+03  -7.678255337743892e-01  -3.252202030926868e+00   5.736902369821191e-01
2017-01-01T23:09:20.000  -3.686852978309797e+04   9.280655909415660e+03  -1.632977790070469e+03  -7.651589247117924e-01  -3.252874481622817e+00   5.738086038612982e-01
2017-01-01T23:09:30.000  -3.687616803643705e+04   9.248123811488316e+03  -1.627239113810503e+03  -7.624916010251157e-01  -3.253544619815207e+00   5.739265627358510e-01
2017-01-01T23:09:40.000  -3.688377961292871e+04   9.215585023944917e+03  -1.621499260037684e+03  -7.598235651357190e-01  -3.254212444595122e+00   5.740441134456516e-01
2017-01-01T23:09:50.000  -3.689136450544321e+04   9.183039570013352e+03  -1.615758232850199e+03  -7.571548194634005e-01  -3.254877955057516e+00   5.741612558312561e-01
2017-01-01T23:10:00.000  -3.689892270689225e+04   9.150487472854429e+03  -1.610016036334400e+03  -7.544853664231975e-01  -3.255541150301829e+00   5.742779897340125e-01
2017-01-01T23:10:10.000  -3.690645421020682e+04   9.117928755660923e+03  -1.604272674582276e+03  -7.518152084335140e-01  -3.256202029430058e+00   5.743943149957182e-01
2017-01-01T23:10:20.000  -3.691395900843385e+04   9.085363441227921e+03  -1.598528151615660e+03  -7.491443478808626e-01  -3.256860591555218e+00   5.745102314601137e-01
2017-01-01T23:10:30.000  -3.692143709461858e+04   9.052791552473254e+03  -1.592782471478035e+03  -7.464727871625635e-01  -3.257516835791036e+00   5.746257389710645e-01
2017-01-01T23:10:40.000  -3.692888846184924e+04   9.020213112240861e+03  -1.587035638199850e+03  -7.438005286706065e-01  -3.258170761255878e+00   5.747408373732539e-01
2017-01-01T23:10:50.000  -3.693631310308279e+04   8.987628144062368e+03  -1.581287655932859e+03  -7.411275748541228e-01  -3.258822367057431e+00   5.748555265094887e-01
2017-01-01T23:11:00.000  -3.694371101131942e+04   8.955036671395512e+03  -1.575538528815777e+03  -7.384539281569094e-01  -3.259471652308054e+00   5.749698062233964e-01
2017-01-01T23:11:10.000  -3.695108217955730e+04   8.922438717820567e+03  -1.569788261008937e+03  -7.357795910335435e-01  -3.260118616120783e+00   5.750836763587281e-01
2017-01-01T23:11:20.000  -3.695842660091337e+04   8.889834306520586e+03  -1.564036856602596e+03  -7.331045659067523e-01  -3.260763257619938e+00   5.751971367612211e-01
2017-01-01T23:11:30.000  -3.696574426852313e+04   8.857223460710160e+03  -1.558284319692575e+03  -7.304288552025699e-01  -3.261405575932340e+00   5.753101872770529e-01
2017-01-01T23:11:40.000  -3.697303517556389e+04   8.824606203536538e+03  -1.552530654362813e+03  -7.277524613422294e-01  -3.262045570189339e+00   5.754228277532026e-01
2017-01-01T23:11:50.000  -3.698029931524426e+04   8.791982558117550e+03  -1.546775864692056e+03  -7.250753867452564e-01  -3.262683239525907e+00   5.755350580372852e-01
2017-01-01T23:12:00.000  -3.698753668080160e+04   8.759352547560182e+03  -1.541019954757137e+03  -7.223976338310052e-01  -3.263318583080405e+00   5.756468779775149e-01
2017-01-01T23:12:10.000  -3.699474726549334e+04   8.726716194999590e+03  -1.535262928639856e+03  -7.197192050218547e-01  -3.263951599993829e+00   5.757582874225708e-01
2017-01-01T23:12:20.000  -3.700193106259141e+04   8.694073523616980e+03  -1.529504790430134e+03  -7.170401027446649e-01  -3.264582289409323e+00   5.758692862215111e-01
2017-01-01T23:12:30.000  -3.700908806537568e+04   8.661424556678452e+03  -1.523745544232864e+03  -7.143603294339745e-01  -3.265210650471597e+00   5.759798742236721e-01
2017-01-01T23:12:40.000  -3.701621826715495e+04   8.628769317435590e+03  -1.517985194150378e+03  -7.116798875238339e-01  -3.265836682328781e+00   5.760900512789923e-01
2017-01-01T23:12:50.000  -3.702332166117563e+04   8.596107829556342e+03  -1.512223744358451e+03  -7.089987794831862e-01  -3.266460384124397e+00   5.761998172366010e-01
2017-01-01T23:13:00.000  -3.703039824073304e+04   8.563440116602957e+03  -1.506461199014210e+03  -7.063170077729972e-01  -3.267081755007144e+00   5.763091719465401e-01
2017-01-01T23:13:10.000  -3.703744799912969e+04   8.530766202226017e+03  -1.500697562290364e+03  -7.036345748621846e-01  -3.267700794127227e+00   5.764181152591179e-01
